start=new Date('2023-03-28T00:00:00.000Z').valueOf();
sats=[{"PERIOD":"96.078","APOAPSIS":"572.749","REF_FRAME":"TEME","BSTAR":"0.00416380000000","OBJECT_TYPE":"PAYLOAD","OBJECT_ID":"2021-082AC","TLE_LINE1":"1 49156U 21082AC  23086.43575849  .00050546  00000-0  41638-2 0  9996","TLE_LINE2":"2 49156  69.9996  93.1134 0003034 277.1024  82.9790 14.98788510 86537","DECAY_DATE":null,"MEAN_ELEMENT_THEORY":"SGP4","GP_ID":"228958629","OBJECT_NAME":"STARLINK-3085","EPHEMERIS_TYPE":"0","FILE":"3872569","NORAD_CAT_ID":"49156","TIME_SYSTEM":"UTC","MEAN_MOTION":"14.98788510","LAUNCH_DATE":"2021-09-14","CLASSIFICATION_TYPE":"U","MEAN_MOTION_DDOT":"0.0000000000000","REV_AT_EPOCH":"8653","EPOCH":"2023-03-27T10:27:29.533536","PERIAPSIS":"568.532","CENTER_NAME":"EARTH","RCS_SIZE":"LARGE","INCLINATION":"69.9996","SITE":"AFWTR","RA_OF_ASC_NODE":"93.1134","SEMIMAJOR_AXIS":"6948.775","ARG_OF_PERICENTER":"277.1024","MEAN_MOTION_DOT":"0.00050546","ECCENTRICITY":"0.00030340","ELEMENT_SET_NO":"999","COUNTRY_CODE":"US","MEAN_ANOMALY":"82.9790"},{"TLE_LINE2":"2 49157  69.9987 112.1564 0003075 272.2701  87.8106 14.98857678 86111","DECAY_DATE":null,"EPHEMERIS_TYPE":"0","GP_ID":"228992585","OBJECT_NAME":"STARLINK-3051","MEAN_ELEMENT_THEORY":"SGP4","APOAPSIS":"572.563","PERIOD":"96.073","TLE_LINE1":"1 49157U 21082AD  23086.81576219  .00055642  00000-0  45713-2 0  9991","BSTAR":"0.00457130000000","OBJECT_TYPE":"PAYLOAD","OBJECT_ID":"2021-082AD","REF_FRAME":"TEME","RA_OF_ASC_NODE":"112.1564","SITE":"AFWTR","SEMIMAJOR_AXIS":"6948.562","INCLINATION":"69.9987","RCS_SIZE":"LARGE","CENTER_NAME":"EARTH","ELEMENT_SET_NO":"999","ECCENTRICITY":"0.00030750","MEAN_ANOMALY":"87.8106","COUNTRY_CODE":"US","ARG_OF_PERICENTER":"272.2701","MEAN_MOTION_DOT":"0.00055642","LAUNCH_DATE":"2021-09-14","MEAN_MOTION":"14.98857678","FILE":"3872915","TIME_SYSTEM":"UTC","NORAD_CAT_ID":"49157","REV_AT_EPOCH":"8611","PERIAPSIS":"568.290","EPOCH":"2023-03-27T19:34:41.853216","CLASSIFICATION_TYPE":"U","MEAN_MOTION_DDOT":"0.0000000000000"},{"MEAN_ELEMENT_THEORY":"SGP4","OBJECT_NAME":"STARLINK-3083","GP_ID":"228931011","EPHEMERIS_TYPE":"0","DECAY_DATE":null,"TLE_LINE2":"2 49158  69.9975 112.7115 0005291 288.3797  71.6788 15.00866594 86075","REF_FRAME":"TEME","BSTAR":"0.00074751000000","OBJECT_TYPE":"PAYLOAD","OBJECT_ID":"2021-082AE","TLE_LINE1":"1 49158U 21082AE  23086.50840677  .00009447  00000-0  74751-3 0  9997","PERIOD":"95.945","APOAPSIS":"567.898","MEAN_MOTION_DOT":"0.00009447","ARG_OF_PERICENTER":"288.3797","COUNTRY_CODE":"US","MEAN_ANOMALY":"71.6788","ECCENTRICITY":"0.00052910","ELEMENT_SET_NO":"999","CENTER_NAME":"EARTH","RCS_SIZE":"LARGE","INCLINATION":"69.9975","SEMIMAJOR_AXIS":"6942.360","SITE":"AFWTR","RA_OF_ASC_NODE":"112.7115","MEAN_MOTION_DDOT":"0.0000000000000","CLASSIFICATION_TYPE":"U","EPOCH":"2023-03-27T12:12:06.344928","PERIAPSIS":"560.552","REV_AT_EPOCH":"8607","TIME_SYSTEM":"UTC","NORAD_CAT_ID":"49158","FILE":"3872361","MEAN_MOTION":"15.00866594","LAUNCH_DATE":"2021-09-14"},{"EPOCH":"2023-03-27T20:22:53.158368","PERIAPSIS":"570.160","REV_AT_EPOCH":"8562","MEAN_MOTION_DDOT":"0.0000000000000","CLASSIFICATION_TYPE":"U","MEAN_MOTION":"14.98274839","LAUNCH_DATE":"2021-09-14","TIME_SYSTEM":"UTC","NORAD_CAT_ID":"49159","FILE":"3872915","COUNTRY_CODE":"US","MEAN_ANOMALY":"99.8683","ECCENTRICITY":"0.00029760","ELEMENT_SET_NO":"999","MEAN_MOTION_DOT":"0.00061620","ARG_OF_PERICENTER":"260.2140","SEMIMAJOR_AXIS":"6950.363","SITE":"AFWTR","RA_OF_ASC_NODE":"132.0793","CENTER_NAME":"EARTH","INCLINATION":"70.0003","RCS_SIZE":"LARGE","TLE_LINE1":"1 49159U 21082AF  23086.84922637  .00061620  00000-0  51341-2 0  9992","REF_FRAME":"TEME","OBJECT_ID":"2021-082AF","OBJECT_TYPE":"PAYLOAD","BSTAR":"0.00513410000000","PERIOD":"96.111","APOAPSIS":"574.297","GP_ID":"228991084","OBJECT_NAME":"STARLINK-3056","EPHEMERIS_TYPE":"0","MEAN_ELEMENT_THEORY":"SGP4","DECAY_DATE":null,"TLE_LINE2":"2 49159  70.0003 132.0793 0002976 260.2140  99.8683 14.98274839 85623"},{"RCS_SIZE":"LARGE","INCLINATION":"69.9998","CENTER_NAME":"EARTH","RA_OF_ASC_NODE":"132.1008","SITE":"AFWTR","SEMIMAJOR_AXIS":"6948.985","ARG_OF_PERICENTER":"257.8480","MEAN_MOTION_DOT":"0.00114280","ELEMENT_SET_NO":"999","ECCENTRICITY":"0.00033360","MEAN_ANOMALY":"102.2306","COUNTRY_CODE":"US","FILE":"3872915","TIME_SYSTEM":"UTC","NORAD_CAT_ID":"49160","LAUNCH_DATE":"2021-09-14","MEAN_MOTION":"14.98720739","CLASSIFICATION_TYPE":"U","MEAN_MOTION_DDOT":"0.0000000000000","REV_AT_EPOCH":"8559","PERIAPSIS":"568.532","EPOCH":"2023-03-27T20:08:05.651520","TLE_LINE2":"2 49160  69.9998 132.1008 0003336 257.8480 102.2306 14.98720739 85597","DECAY_DATE":null,"MEAN_ELEMENT_THEORY":"SGP4","EPHEMERIS_TYPE":"0","GP_ID":"228992335","OBJECT_NAME":"STARLINK-3095","PERIOD":"96.082","APOAPSIS":"573.168","OBJECT_TYPE":"PAYLOAD","OBJECT_ID":"2021-082AG","BSTAR":"0.00933520000000","REF_FRAME":"TEME","TLE_LINE1":"1 49160U 21082AG  23086.83895430  .00114280  00000-0  93352-2 0  9992"},{"ARG_OF_PERICENTER":"256.3069","MEAN_MOTION_DOT":"0.00015483","ECCENTRICITY":"0.00032060","ELEMENT_SET_NO":"999","COUNTRY_CODE":"US","MEAN_ANOMALY":"103.7733","CENTER_NAME":"EARTH","INCLINATION":"70.0006","RCS_SIZE":"LARGE","SITE":"AFWTR","RA_OF_ASC_NODE":"132.7619","SEMIMAJOR_AXIS":"6950.114","CLASSIFICATION_TYPE":"U","MEAN_MOTION_DDOT":"0.0000000000000","REV_AT_EPOCH":"8556","EPOCH":"2023-03-27T13:50:37.191840","PERIAPSIS":"569.751","FILE":"3872569","NORAD_CAT_ID":"49161","TIME_SYSTEM":"UTC","MEAN_MOTION":"14.98355464","LAUNCH_DATE":"2021-09-14","MEAN_ELEMENT_THEORY":"SGP4","OBJECT_NAME":"STARLINK-3080","GP_ID":"228958375","EPHEMERIS_TYPE":"0","TLE_LINE2":"2 49161  70.0006 132.7619 0003206 256.3069 103.7733 14.98355464 85564","DECAY_DATE":null,"REF_FRAME":"TEME","OBJECT_TYPE":"PAYLOAD","BSTAR":"0.00130170000000","OBJECT_ID":"2021-082AH","TLE_LINE1":"1 49161U 21082AH  23086.57681935  .00015483  00000-0  13017-2 0  9992","APOAPSIS":"574.207","PERIOD":"96.105"},{"BSTAR":"0.00736940000000","OBJECT_TYPE":"PAYLOAD","OBJECT_ID":"2021-082AJ","REF_FRAME":"TEME","TLE_LINE1":"1 49162U 21082AJ  23086.83400254  .00089988  00000-0  73694-2 0  9993","PERIOD":"96.079","APOAPSIS":"573.037","MEAN_ELEMENT_THEORY":"SGP4","EPHEMERIS_TYPE":"0","OBJECT_NAME":"STARLINK-3082","GP_ID":"228991334","TLE_LINE2":"2 49162  70.0002 132.1129 0003350 266.7216  93.3560 14.98766192 85689","DECAY_DATE":null,"CLASSIFICATION_TYPE":"U","MEAN_MOTION_DDOT":"0.0000000000000","REV_AT_EPOCH":"8568","EPOCH":"2023-03-27T20:00:57.819456","PERIAPSIS":"568.381","FILE":"3872915","TIME_SYSTEM":"UTC","NORAD_CAT_ID":"49162","LAUNCH_DATE":"2021-09-14","MEAN_MOTION":"14.98766192","ARG_OF_PERICENTER":"266.7216","MEAN_MOTION_DOT":"0.00089988","ELEMENT_SET_NO":"999","ECCENTRICITY":"0.00033500","MEAN_ANOMALY":"93.3560","COUNTRY_CODE":"US","RCS_SIZE":"LARGE","INCLINATION":"70.0002","CENTER_NAME":"EARTH","RA_OF_ASC_NODE":"132.1129","SITE":"AFWTR","SEMIMAJOR_AXIS":"6948.844"},{"PERIOD":"96.113","APOAPSIS":"574.478","OBJECT_TYPE":"PAYLOAD","BSTAR":"0.00175000000000","OBJECT_ID":"2021-082AK","REF_FRAME":"TEME","TLE_LINE1":"1 49163U 21082AK  23086.80724729  .00020796  00000-0  17500-2 0  9993","TLE_LINE2":"2 49163  69.9979 112.1806 0003037 267.4165  92.6647 14.98229900 86177","DECAY_DATE":null,"MEAN_ELEMENT_THEORY":"SGP4","EPHEMERIS_TYPE":"0","OBJECT_NAME":"STARLINK-3088","GP_ID":"228991584","FILE":"3872915","NORAD_CAT_ID":"49163","TIME_SYSTEM":"UTC","LAUNCH_DATE":"2021-09-14","MEAN_MOTION":"14.98229900","CLASSIFICATION_TYPE":"U","MEAN_MOTION_DDOT":"0.0000000000000","REV_AT_EPOCH":"8617","PERIAPSIS":"570.257","EPOCH":"2023-03-27T19:22:26.165856","INCLINATION":"69.9979","RCS_SIZE":"LARGE","CENTER_NAME":"EARTH","RA_OF_ASC_NODE":"112.1806","SITE":"AFWTR","SEMIMAJOR_AXIS":"6950.502","ARG_OF_PERICENTER":"267.4165","MEAN_MOTION_DOT":"0.00020796","ELEMENT_SET_NO":"999","ECCENTRICITY":"0.00030370","MEAN_ANOMALY":"92.6647","COUNTRY_CODE":"US"},{"MEAN_MOTION":"14.97948623","LAUNCH_DATE":"2021-09-14","TIME_SYSTEM":"UTC","NORAD_CAT_ID":"49164","FILE":"3872915","PERIAPSIS":"570.807","EPOCH":"2023-03-27T19:08:56.232384","REV_AT_EPOCH":"8618","MEAN_MOTION_DDOT":"0.0000000000000","CLASSIFICATION_TYPE":"U","SEMIMAJOR_AXIS":"6951.373","SITE":"AFWTR","RA_OF_ASC_NODE":"112.2066","CENTER_NAME":"EARTH","RCS_SIZE":"LARGE","INCLINATION":"69.9981","COUNTRY_CODE":"US","MEAN_ANOMALY":"83.7203","ECCENTRICITY":"0.00034960","ELEMENT_SET_NO":"999","MEAN_MOTION_DOT":"-0.00044550","ARG_OF_PERICENTER":"276.3558","APOAPSIS":"575.668","PERIOD":"96.131","TLE_LINE1":"1 49164U 21082AL  23086.79787306 -.00044550  00000-0 -37867-2 0  9996","REF_FRAME":"TEME","BSTAR":"-0.00378670000000","OBJECT_TYPE":"PAYLOAD","OBJECT_ID":"2021-082AL","DECAY_DATE":null,"TLE_LINE2":"2 49164  69.9981 112.2066 0003496 276.3558  83.7203 14.97948623 86183","GP_ID":"228991836","OBJECT_NAME":"STARLINK-3106","EPHEMERIS_TYPE":"0","MEAN_ELEMENT_THEORY":"SGP4"},{"COUNTRY_CODE":"US","MEAN_ANOMALY":"81.7264","ECCENTRICITY":"0.00030840","ELEMENT_SET_NO":"999","MEAN_MOTION_DOT":"0.00070087","ARG_OF_PERICENTER":"278.3545","SEMIMAJOR_AXIS":"6947.971","SITE":"AFWTR","RA_OF_ASC_NODE":"132.1227","CENTER_NAME":"EARTH","INCLINATION":"69.9997","RCS_SIZE":"LARGE","PERIAPSIS":"567.693","EPOCH":"2023-03-27T19:53:28.443552","REV_AT_EPOCH":"8572","MEAN_MOTION_DDOT":"0.0000000000000","CLASSIFICATION_TYPE":"U","MEAN_MOTION":"14.99048761","LAUNCH_DATE":"2021-09-14","NORAD_CAT_ID":"49165","TIME_SYSTEM":"UTC","FILE":"3872915","GP_ID":"228992586","OBJECT_NAME":"STARLINK-3052","EPHEMERIS_TYPE":"0","MEAN_ELEMENT_THEORY":"SGP4","DECAY_DATE":null,"TLE_LINE2":"2 49165  69.9997 132.1227 0003084 278.3545  81.7264 14.99048761 85722","TLE_LINE1":"1 49165U 21082AM  23086.82880143  .00070087  00000-0  57158-2 0  9991","REF_FRAME":"TEME","OBJECT_TYPE":"PAYLOAD","OBJECT_ID":"2021-082AM","BSTAR":"0.00571580000000","APOAPSIS":"571.979","PERIOD":"96.061"}];
